STARLINK-36339          
1 67340U 26003G   26031.16668981 -.02060694  00000+0 -32290-1 0  9993
2 67340  42.9999  81.0063 0000940 264.0261  34.4459 15.56049188  4646
STARLINK-36453          
1 67341U 26003H   26031.16668981 -.02058929  00000+0 -32259-1 0  9997
2 67341  42.9999  81.0007 0000944 269.7616  30.6262 15.56049113  4643
STARLINK-36432          
1 67342U 26003J   26031.16668981 -.02058814  00000+0 -32257-1 0  9999
2 67342  42.9997  80.9964 0001077 263.9277  38.3776 15.56048442  4637
STARLINK-36458          
1 67343U 26003K   26031.16668981 -.02058813  00000+0 -32258-1 0  9990
2 67343  42.9996  80.9915 0000949 264.3477  39.8759 15.56048134  4643
STARLINK-36422          
1 67344U 26003L   26031.16668981 -.02055114  00000+0 -32194-1 0  9991
2 67344  42.9996  80.9857 0001129 263.4060  42.7336 15.56046014  4636
STARLINK-35676          
1 67345U 26003M   26031.16668981 -.02037169  00000+0 -31899-1 0  9993
2 67345  42.9997  80.9813 0001085 259.5014  48.5661 15.56030310  4633
STARLINK-36472          
1 67346U 26003N   26031.16668981 -.02062910  00000+0 -32327-1 0  9993
2 67346  42.9996  80.9763 0000982 264.1212  45.8535 15.56050428  4636
STARLINK-36420          
1 67347U 26003P   26031.16668981 -.02069203  00000+0 -32433-1 0  9994
2 67347  42.9999  80.9666 0001050 263.5259  50.2808 15.56053511  4643
STARLINK-36467          
1 67348U 26003Q   26031.16668981 -.02055177  00000+0 -32194-1 0  9994
2 67348  42.9999  80.9720 0001153 264.1792  47.7115 15.56046419  4649
STARLINK-36457          
1 67349U 26003R   26031.16668981 -.02062408  00000+0 -32321-1 0  9992
2 67349  42.9997  80.9620 0001076 255.9608  59.7666 15.56047608  4640
STARLINK-36475          
1 67350U 26003S   26031.16668981 -.02062644  00000+0 -32322-1 0  9997
2 67350  42.9999  80.9567 0001225 269.8207  47.8207 15.56048888  4638
STARLINK-36478          
1 67351U 26003T   26031.16668981 -.02070773  00000+0 -32459-1 0  9991
2 67351  43.0001  80.9523 0001115 262.6127  56.9454 15.56054296  4632
